{"type": "FeatureCollection", "features": [ {"type": "Feature", "properties": {"norad_id": 30252, "name": "FENGYUN 1C DEB", "group": "fengyun-1c-debris", "lat": -5.150742221471446, "lon": -165.7874057820272, "alt_km": 818.0130945492047, "timestamp": "2025-12-26T08:37:54.855348+00:00", "meta": {"OBJECT_NAME": "FENGYUN 1C DEB", "OBJECT_ID": "1999-025XM", "EPOCH": "2025-12-25T23:31:01.015968", "MEAN_MOTION": 14.09731215, "ECCENTRICITY": 0.00664062, "INCLINATION": 98.7428, "RA_OF_ASC_NODE": 14.6385, "ARG_OF_PERICENTER": 203.8952, "MEAN_ANOMALY": 215.0575, "EPHEMERIS_TYPE": 0, "CLASSIFICATION_TYPE": "U", "NORAD_CAT_ID": 30252, "ELEMENT_SET_NO": 999, "REV_AT_EPOCH": 97152, "BSTAR": 0.00046180126, "MEAN_MOTION_DOT": 7.84e-06, "MEAN_MOTION_DDOT": 0}, "tle": {"line1": "1 30252U 99025XM  25359.97987287  .00000784  00000+0  46180-3 0  9998", "line2": "2 30252  98.7428  14.6385 0066406 203.8952 215.0575 14.09731215971522"}}, "geometry": {"type": "Point", "coordinates": [-165.7874057820272, -5.150742221471446]}}, {"type": "Feature", "properties": {"norad_id": 30253, "name": "FENGYUN 1C DEB", "group": "fengyun-1c-debris", "lat": -10.31745688926067, "lon": 88.87735087298934, "alt_km": 834.6804642895886, "timestamp": "2025-12-26T08:37:54.855359+00:00", "meta": {"OBJECT_NAME": "FENGYUN 1C DEB", "OBJECT_ID": "1999-025XN", "EPOCH": "2025-12-24T04:31:02.640864", "MEAN_MOTION": 13.73225958, "ECCENTRICITY": 0.02209078, "INCLINATION": 98.7514, "RA_OF_ASC_NODE": 85.2829, "ARG_OF_PERICENTER": 10.5112, "MEAN_ANOMALY": 50.8123, "EPHEMERIS_TYPE": 0, "CLASSIFICATION_TYPE": "U", "NORAD_CAT_ID": 30253, "ELEMENT_SET_NO": 999, "REV_AT_EPOCH": 94171, "BSTAR": 0.0018356791, "MEAN_MOTION_DOT": 1.988e-05, "MEAN_MOTION_DDOT": 0}, "tle": {"line1": "1 30253U 99025XN  25358.18822501  .00001988  00000+0  18357-2 0  9999", "line2": "2 30253  98.7514  85.2829 0220907  10.5112  50.8123 13.73225958941719"}}, "geometry": {"type": "Point", "coordinates": [88.87735087298934, -10.31745688926067]}}, {"type": "Feature", "properties": {"norad_id": 30257, "name": "FENGYUN 1C DEB", "group": "fengyun-1c-debris", "lat": -5.906402985681153, "lon": 177.63013968780757, "alt_km": 888.1686910914113, "timestamp": "2025-12-26T08:37:54.855369+00:00", "meta": {"OBJECT_NAME": "FENGYUN 1C DEB", "OBJECT_ID": "1999-025XS", "EPOCH": "2025-12-25T23:29:59.233920", "MEAN_MOTION": 14.09730757, "ECCENTRICITY": 0.005957, "INCLINATION": 98.7499, "RA_OF_ASC_NODE": 358.1732, "ARG_OF_PERICENTER": 62.4571, "MEAN_ANOMALY": 352.84, "EPHEMERIS_TYPE": 0, "CLASSIFICATION_TYPE": "U", "NORAD_CAT_ID": 30257, "ELEMENT_SET_NO": 999, "REV_AT_EPOCH": 97404, "BSTAR": 9.5089e-05, "MEAN_MOTION_DOT": 1.27e-06, "MEAN_MOTION_DDOT": 0}, "tle": {"line1": "1 30257U 99025XS  25359.97915780  .00000127  00000+0  95089-4 0  9996", "line2": "2 30257  98.7499 358.1732 0059570  62.4571 352.8400 14.09730757974044"}}, "geometry": {"type": "Point", "coordinates": [177.63013968780757, -5.906402985681153]}}, {"type": "Feature", "properties": {"norad_id": 30259, "name": "FENGYUN 1C DEB", "group": "fengyun-1c-debris", "lat": 62.498927657679815, "lon": 49.90227394833859, "alt_km": 771.5582128874839, "timestamp": "2025-12-26T08:37:54.855380+00:00", "meta": {"OBJECT_NAME": "FENGYUN 1C DEB", "OBJECT_ID": "1999-025XU", "EPOCH": "2025-12-26T03:41:11.591232", "MEAN_MOTION": 14.51571724, "ECCENTRICITY": 0.0242061, "INCLINATION": 98.7608, "RA_OF_ASC_NODE": 212.4567, "ARG_OF_PERICENTER": 227.4755, "MEAN_ANOMALY": 255.1022, "EPHEMERIS_TYPE": 0, "CLASSIFICATION_TYPE": "U", "NORAD_CAT_ID": 30259, "ELEMENT_SET_NO": 999, "REV_AT_EPOCH": 99669, "BSTAR": 0.00044259, "MEAN_MOTION_DOT": 2.533e-05, "MEAN_MOTION_DDOT": 0}, "tle": {"line1": "1 30259U 99025XU  25360.15360638  .00002533  00000+0  44259-3 0  9991", "line2": "2 30259  98.7608 212.4567 0242061 227.4755 255.1022 14.51571724996696"}}, "geometry": {"type": "Point", "coordinates": [49.90227394833859, 62.498927657679815]}}, {"type": "Feature", "properties": {"norad_id": 30263, "name": "FENGYUN 1C DEB", "group": "fengyun-1c-debris", "lat": -46.420346796508575, "lon": 124.77558202669107, "alt_km": 791.7195925298474, "timestamp": "2025-12-26T08:37:54.855390+00:00", "meta": {"OBJECT_NAME": "FENGYUN 1C DEB", "OBJECT_ID": "1999-025XY", "EPOCH": "2025-12-20T07:28:46.628256", "MEAN_MOTION": 14.01494898, "ECCENTRICITY": 0.01444826, "INCLINATION": 98.9351, "RA_OF_ASC_NODE": 109.3367, "ARG_OF_PERICENTER": 339.2977, "MEAN_ANOMALY": 76.0019, "EPHEMERIS_TYPE": 0, "CLASSIFICATION_TYPE": "U", "NORAD_CAT_ID": 30263, "ELEMENT_SET_NO": 999, "REV_AT_EPOCH": 96131, "BSTAR": 0.00070985244, "MEAN_MOTION_DOT": 1.131e-05, "MEAN_MOTION_DDOT": 0}, "tle": {"line1": "1 30263U 99025XY  25354.31165079  .00001131  00000+0  70985-3 0  9997", "line2": "2 30263  98.9351 109.3367 0144482 339.2977  76.0019 14.01494898961314"}}, "geometry": {"type": "Point", "coordinates": [124.77558202669107, -46.420346796508575]}}, {"type": "Feature", "properties": {"norad_id": 30264, "name": "FENGYUN 1C DEB", "group": "fengyun-1c-debris", "lat": 79.21460458531791, "lon": -0.6101248028297482, "alt_km": 935.7016677072015, "timestamp": "2025-12-26T08:37:54.855400+00:00", "meta": {"OBJECT_NAME": "FENGYUN 1C DEB", "OBJECT_ID": "1999-025XZ", "EPOCH": "2025-12-26T03:22:51.053088", "MEAN_MOTION": 14.07692025, "ECCENTRICITY": 0.0108306, "INCLINATION": 98.9695, "RA_OF_ASC_NODE": 55.1779, "ARG_OF_PERICENTER": 249.7792, "MEAN_ANOMALY": 166.3784, "EPHEMERIS_TYPE": 0, "CLASSIFICATION_TYPE": "U", "NORAD_CAT_ID": 30264, "ELEMENT_SET_NO": 999, "REV_AT_EPOCH": 96746, "BSTAR": 0.0010785, "MEAN_MOTION_DOT": 1.879e-05, "MEAN_MOTION_DDOT": 0}, "tle": {"line1": "1 30264U 99025XZ  25360.14086867  .00001879  00000+0  10785-2 0  9993", "line2": "2 30264  98.9695  55.1779 0108306 249.7792 166.3784 14.07692025967468"}}, "geometry": {"type": "Point", "coordinates": [-0.6101248028297482, 79.21460458531791]}}, {"type": "Feature", "properties": {"norad_id": 30265, "name": "FENGYUN 1C DEB", "group": "fengyun-1c-debris", "lat": 80.39203085880933, "lon": 45.812832212687375, "alt_km": 697.9712742463826, "timestamp": "2025-12-26T08:37:54.855410+00:00", "meta": {"OBJECT_NAME": "FENGYUN 1C DEB", "OBJECT_ID": "1999-025YA", "EPOCH": "2025-12-25T06:10:18.585984", "MEAN_MOTION": 14.5885906, "ECCENTRICITY": 0.0028061, "INCLINATION": 98.6637, "RA_OF_ASC_NODE": 108.916, "ARG_OF_PERICENTER": 333.3639, "MEAN_ANOMALY": 85.3061, "EPHEMERIS_TYPE": 0, "CLASSIFICATION_TYPE": "U", "NORAD_CAT_ID": 30265, "ELEMENT_SET_NO": 999, "REV_AT_EPOCH": 98584, "BSTAR": 0.0023901, "MEAN_MOTION_DOT": 0.00011213, "MEAN_MOTION_DDOT": 0}, "tle": {"line1": "1 30265U 99025YA  25359.25715956  .00011213  00000+0  23901-2 0  9999", "line2": "2 30265  98.6637 108.9160 0028061 333.3639  85.3061 14.58859060985842"}}, "geometry": {"type": "Point", "coordinates": [45.812832212687375, 80.39203085880933]}}, {"type": "Feature", "properties": {"norad_id": 30266, "name": "FENGYUN 1C DEB", "group": "fengyun-1c-debris", "lat": 55.21895916647734, "lon": -101.99235465791173, "alt_km": 842.7905596470409, "timestamp": "2025-12-26T08:37:54.855420+00:00", "meta": {"OBJECT_NAME": "FENGYUN 1C DEB", "OBJECT_ID": "1999-025YB", "EPOCH": "2025-12-26T03:06:17.262144", "MEAN_MOTION": 14.15143281, "ECCENTRICITY": 0.0081678, "INCLINATION": 99.0414, "RA_OF_ASC_NODE": 64.5209, "ARG_OF_PERICENTER": 27.7514, "MEAN_ANOMALY": 2.3899, "EPHEMERIS_TYPE": 0, "CLASSIFICATION_TYPE": "U", "NORAD_CAT_ID": 30266, "ELEMENT_SET_NO": 999, "REV_AT_EPOCH": 96979, "BSTAR": 0.0011886, "MEAN_MOTION_DOT": 2.337e-05, "MEAN_MOTION_DDOT": 0}, "tle": {"line1": "1 30266U 99025YB  25360.12936646  .00002337  00000+0  11886-2 0  9995", "line2": "2 30266  99.0414  64.5209 0081678  27.7514   2.3899 14.15143281969799"}}, "geometry": {"type": "Point", "coordinates": [-101.99235465791173, 55.21895916647734]}}, {"type": "Feature", "properties": {"norad_id": 30267, "name": "FENGYUN 1C DEB", "group": "fengyun-1c-debris", "lat": 80.29251315752316, "lon": -42.807101234661914, "alt_km": 820.3953385195264, "timestamp": "2025-12-26T08:37:54.855430+00:00", "meta": {"OBJECT_NAME": "FENGYUN 1C DEB", "OBJECT_ID": "1999-025YC", "EPOCH": "2025-12-26T03:07:39.315360", "MEAN_MOTION": 14.23695162, "ECCENTRICITY": 0.0060011, "INCLINATION": 98.8485, "RA_OF_ASC_NODE": 71.3735, "ARG_OF_PERICENTER": 205.234, "MEAN_ANOMALY": 154.5903, "EPHEMERIS_TYPE": 0, "CLASSIFICATION_TYPE": "U", "NORAD_CAT_ID": 30267, "ELEMENT_SET_NO": 999, "REV_AT_EPOCH": 97485, "BSTAR": 0.0015238, "MEAN_MOTION_DOT": 3.499e-05, "MEAN_MOTION_DDOT": 0}, "tle": {"line1": "1 30267U 99025YC  25360.13031615  .00003499  00000+0  15238-2 0  9994", "line2": "2 30267  98.8485  71.3735 0060011 205.2340 154.5903 14.23695162974851"}}, "geometry": {"type": "Point", "coordinates": [-42.807101234661914, 80.29251315752316]}}, {"type": "Feature", "properties": {"norad_id": 30270, "name": "FENGYUN 1C DEB", "group": "fengyun-1c-debris", "lat": -17.49138728481299, "lon": -169.10423508793525, "alt_km": 858.2896102076156, "timestamp": "2025-12-26T08:37:54.855441+00:00", "meta": {"OBJECT_NAME": "FENGYUN 1C DEB", "OBJECT_ID": "1999-025YF", "EPOCH": "2025-12-26T01:11:00.846240", "MEAN_MOTION": 14.11276985, "ECCENTRICITY": 0.0007938, "INCLINATION": 98.7017, "RA_OF_ASC_NODE": 13.3613, "ARG_OF_PERICENTER": 124.5202, "MEAN_ANOMALY": 297.1109, "EPHEMERIS_TYPE": 0, "CLASSIFICATION_TYPE": "U", "NORAD_CAT_ID": 30270, "ELEMENT_SET_NO": 999, "REV_AT_EPOCH": 97549, "BSTAR": 0.00013759, "MEAN_MOTION_DOT": 2.06e-06, "MEAN_MOTION_DDOT": 0}, "tle": {"line1": "1 30270U 99025YF  25360.04931535  .00000206  00000+0  13759-3 0  9998", "line2": "2 30270  98.7017  13.3613 0007938 124.5202 297.1109 14.11276985975493"}}, "geometry": {"type": "Point", "coordinates": [-169.10423508793525, -17.49138728481299]}}]}